[{"OBJECT_NAME":"CREW DRAGON 12","OBJECT_ID":"2026-031A","EPOCH":"2026-03-15T04:37:08.870592","MEAN_MOTION":15.48288531,"ECCENTRICITY":0.00063636,"INCLINATION":51.633,"RA_OF_ASC_NODE":45.1519,"ARG_OF_PERICENTER":192.7288,"MEAN_ANOMALY":167.354,"EPHEMERIS_TYPE":0,"CLASSIFICATION_TYPE":"U","NORAD_CAT_ID":67796,"ELEMENT_SET_NO":999,"REV_AT_EPOCH":55708,"BSTAR":0.0001887181,"MEAN_MOTION_DOT":9.711e-5,"MEAN_MOTION_DDOT":0},{"OBJECT_NAME":"STARLINK-36800","OBJECT_ID":"2026-032A","EPOCH":"2026-03-15T00:42:58.010112","MEAN_MOTION":15.75119523,"ECCENTRICITY":0.00022494,"INCLINATION":97.2833,"RA_OF_ASC_NODE":260.7746,"ARG_OF_PERICENTER":68.6913,"MEAN_ANOMALY":291.4592,"EPHEMERIS_TYPE":0,"CLASSIFICATION_TYPE":"U","NORAD_CAT_ID":67797,"ELEMENT_SET_NO":999,"REV_AT_EPOCH":562,"BSTAR":0.00087824436,"MEAN_MOTION_DOT":0.00132521,"MEAN_MOTION_DDOT":0},{"OBJECT_NAME":"STARLINK-36798","OBJECT_ID":"2026-032B","EPOCH":"2026-03-15T06:25:31.758816","MEAN_MOTION":15.75187625,"ECCENTRICITY":0.00013532,"INCLINATION":97.2841,"RA_OF_ASC_NODE":261.0645,"ARG_OF_PERICENTER":94.3357,"MEAN_ANOMALY":265.8063,"EPHEMERIS_TYPE":0,"CLASSIFICATION_TYPE":"U","NORAD_CAT_ID":67798,"ELEMENT_SET_NO":999,"REV_AT_EPOCH":566,"BSTAR":0.0014092881,"MEAN_MOTION_DOT":0.00215441,"MEAN_MOTION_DDOT":0},{"OBJECT_NAME":"STARLINK-36804","OBJECT_ID":"2026-032C","EPOCH":"2026-03-15T03:43:23.904192","MEAN_MOTION":15.75170358,"ECCENTRICITY":0.00015117,"INCLINATION":97.2834,"RA_OF_ASC_NODE":260.9104,"ARG_OF_PERICENTER":64.0069,"MEAN_ANOMALY":296.1352,"EPHEMERIS_TYPE":0,"CLASSIFICATION_TYPE":"U","NORAD_CAT_ID":67799,"ELEMENT_SET_NO":999,"REV_AT_EPOCH":564,"BSTAR":0.00063062795,"MEAN_MOTION_DOT":0.00094904,"MEAN_MOTION_DDOT":0},{"OBJECT_NAME":"STARLINK-36354","OBJECT_ID":"2026-032D","EPOCH":"2026-03-15T01:56:09.942432","MEAN_MOTION":15.75180815,"ECCENTRICITY":0.00023295,"INCLINATION":97.2837,"RA_OF_ASC_NODE":260.8605,"ARG_OF_PERICENTER":53.9043,"MEAN_ANOMALY":306.2438,"EPHEMERIS_TYPE":0,"CLASSIFICATION_TYPE":"U","NORAD_CAT_ID":67800,"ELEMENT_SET_NO":999,"REV_AT_EPOCH":563,"BSTAR":0.00071238278,"MEAN_MOTION_DOT":0.00107438,"MEAN_MOTION_DDOT":0},{"OBJECT_NAME":"STARLINK-36773","OBJECT_ID":"2026-032E","EPOCH":"2026-03-15T03:38:49.445952","MEAN_MOTION":15.75192896,"ECCENTRICITY":0.00020543,"INCLINATION":97.2837,"RA_OF_ASC_NODE":260.915,"ARG_OF_PERICENTER":85.2527,"MEAN_ANOMALY":274.8973,"EPHEMERIS_TYPE":0,"CLASSIFICATION_TYPE":"U","NORAD_CAT_ID":67801,"ELEMENT_SET_NO":999,"REV_AT_EPOCH":564,"BSTAR":0.00089182654,"MEAN_MOTION_DOT":0.00135037,"MEAN_MOTION_DDOT":0},{"OBJECT_NAME":"STARLINK-36739","OBJECT_ID":"2026-032F","EPOCH":"2026-03-15T06:15:21.772224","MEAN_MOTION":15.75216237,"ECCENTRICITY":0.00012883,"INCLINATION":97.2842,"RA_OF_ASC_NODE":261.0734,"ARG_OF_PERICENTER":89.3639,"MEAN_ANOMALY":270.7774,"EPHEMERIS_TYPE":0,"CLASSIFICATION_TYPE":"U","NORAD_CAT_ID":67802,"ELEMENT_SET_NO":999,"REV_AT_EPOCH":566,"BSTAR":0.0020091538,"MEAN_MOTION_DOT":0.00311083,"MEAN_MOTION_DDOT":0},{"OBJECT_NAME":"STARLINK-36768","OBJECT_ID":"2026-032G","EPOCH":"2026-03-15T01:58:42.457440","MEAN_MOTION":15.75198014,"ECCENTRICITY":0.00025262,"INCLINATION":97.2837,"RA_OF_ASC_NODE":260.8554,"ARG_OF_PERICENTER":47.1944,"MEAN_ANOMALY":312.9534,"EPHEMERIS_TYPE":0,"CLASSIFICATION_TYPE":"U","NORAD_CAT_ID":67803,"ELEMENT_SET_NO":999,"REV_AT_EPOCH":563,"BSTAR":0.0011234698,"MEAN_MOTION_DOT":0.0017091,"MEAN_MOTION_DDOT":0},{"OBJECT_NAME":"STARLINK-36792","OBJECT_ID":"2026-032H","EPOCH":"2026-03-15T03:33:44.441856","MEAN_MOTION":15.75179827,"ECCENTRICITY":0.00011,"INCLINATION":97.2836,"RA_OF_ASC_NODE":260.9189,"ARG_OF_PERICENTER":93.5359,"MEAN_ANOMALY":266.6032,"EPHEMERIS_TYPE":0,"CLASSIFICATION_TYPE":"U","NORAD_CAT_ID":67804,"ELEMENT_SET_NO":999,"REV_AT_EPOCH":564,"BSTAR":0.00073192226,"MEAN_MOTION_DOT":0.00110413,"MEAN_MOTION_DDOT":0},{"OBJECT_NAME":"STARLINK-36782","OBJECT_ID":"2026-032J","EPOCH":"2026-03-15T06:01:08.333760","MEAN_MOTION":15.75185171,"ECCENTRICITY":0.00016079,"INCLINATION":97.2842,"RA_OF_ASC_NODE":261.0859,"ARG_OF_PERICENTER":74.6972,"MEAN_ANOMALY":285.4471,"EPHEMERIS_TYPE":0,"CLASSIFICATION_TYPE":"U","NORAD_CAT_ID":67805,"ELEMENT_SET_NO":999,"REV_AT_EPOCH":566,"BSTAR":0.0015164442,"MEAN_MOTION_DOT":0.0023227,"MEAN_MOTION_DDOT":0},{"OBJECT_NAME":"STARLINK-36389","OBJECT_ID":"2026-032K","EPOCH":"2026-03-15T06:20:27.121056","MEAN_MOTION":15.75176782,"ECCENTRICITY":0.00020773,"INCLINATION":97.2838,"RA_OF_ASC_NODE":261.0667,"ARG_OF_PERICENTER":64.359,"MEAN_ANOMALY":295.7889,"EPHEMERIS_TYPE":0,"CLASSIFICATION_TYPE":"U","NORAD_CAT_ID":67806,"ELEMENT_SET_NO":999,"REV_AT_EPOCH":566,"BSTAR":0.0011513179,"MEAN_MOTION_DOT":0.00175068,"MEAN_MOTION_DDOT":0},{"OBJECT_NAME":"STARLINK-36382","OBJECT_ID":"2026-032L","EPOCH":"2026-03-15T06:17:24.092160","MEAN_MOTION":15.75244897,"ECCENTRICITY":0.00018928,"INCLINATION":97.2834,"RA_OF_ASC_NODE":261.0688,"ARG_OF_PERICENTER":64.1729,"MEAN_ANOMALY":295.9731,"EPHEMERIS_TYPE":0,"CLASSIFICATION_TYPE":"U","NORAD_CAT_ID":67807,"ELEMENT_SET_NO":999,"REV_AT_EPOCH":566,"BSTAR":0.0019401314,"MEAN_MOTION_DOT":0.00300381,"MEAN_MOTION_DDOT":0},{"OBJECT_NAME":"STARLINK-36811","OBJECT_ID":"2026-032M","EPOCH":"2026-03-15T06:03:10.489536","MEAN_MOTION":15.7520965,"ECCENTRICITY":0.00021674,"INCLINATION":97.284,"RA_OF_ASC_NODE":261.0835,"ARG_OF_PERICENTER":79.2141,"MEAN_ANOMALY":280.9368,"EPHEMERIS_TYPE":0,"CLASSIFICATION_TYPE":"U","NORAD_CAT_ID":67808,"ELEMENT_SET_NO":999,"REV_AT_EPOCH":566,"BSTAR":0.0016019965,"MEAN_MOTION_DOT":0.00246046,"MEAN_MOTION_DDOT":0},{"OBJECT_NAME":"STARLINK-36795","OBJECT_ID":"2026-032N","EPOCH":"2026-03-15T06:27:34.089120","MEAN_MOTION":15.75175475,"ECCENTRICITY":0.00017964,"INCLINATION":97.2835,"RA_OF_ASC_NODE":261.0593,"ARG_OF_PERICENTER":84.8391,"MEAN_ANOMALY":275.3079,"EPHEMERIS_TYPE":0,"CLASSIFICATION_TYPE":"U","NORAD_CAT_ID":67809,"ELEMENT_SET_NO":999,"REV_AT_EPOCH":566,"BSTAR":0.0020299782,"MEAN_MOTION_DOT":0.00313857,"MEAN_MOTION_DDOT":0},{"OBJECT_NAME":"STARLINK-36807","OBJECT_ID":"2026-032P","EPOCH":"2026-03-15T06:04:41.903328","MEAN_MOTION":15.7520388,"ECCENTRICITY":0.00015181,"INCLINATION":97.2844,"RA_OF_ASC_NODE":261.0809,"ARG_OF_PERICENTER":79.1533,"MEAN_ANOMALY":280.9903,"EPHEMERIS_TYPE":0,"CLASSIFICATION_TYPE":"U","NORAD_CAT_ID":67810,"ELEMENT_SET_NO":999,"REV_AT_EPOCH":566,"BSTAR":0.0016630362,"MEAN_MOTION_DOT":0.00255647,"MEAN_MOTION_DDOT":0},{"OBJECT_NAME":"STARLINK-36733","OBJECT_ID":"2026-032Q","EPOCH":"2026-03-15T05:50:58.730784","MEAN_MOTION":15.75161602,"ECCENTRICITY":0.00018526,"INCLINATION":97.2835,"RA_OF_ASC_NODE":261.0931,"ARG_OF_PERICENTER":78.5471,"MEAN_ANOMALY":281.6002,"EPHEMERIS_TYPE":0,"CLASSIFICATION_TYPE":"U","NORAD_CAT_ID":67811,"ELEMENT_SET_NO":999,"REV_AT_EPOCH":566,"BSTAR":0.0022976559,"MEAN_MOTION_DOT":0.00356862,"MEAN_MOTION_DDOT":0}]
