CREW DRAGON 12          
1 67796U 26031A   26074.19246378  .00009711  00000+0  18872-3 0  9992
2 67796  51.6330  45.1519 0006363 192.7288 167.3540 15.48288531557081
STARLINK-36800          
1 67797U 26032A   26074.02983808  .00132521  00000+0  87824-3 0  9991
2 67797  97.2833 260.7746 0002249  68.6913 291.4592 15.75119523  5626
STARLINK-36798          
1 67798U 26032B   26074.26772869  .00215441  00000+0  14093-2 0  9991
2 67798  97.2841 261.0645 0001353  94.3357 265.8063 15.75187625  5661
STARLINK-36804          
1 67799U 26032C   26074.15513778  .00094904  00000+0  63063-3 0  9993
2 67799  97.2834 260.9104 0001511  64.0069 296.1352 15.75170358  5643
STARLINK-36354          
1 67800U 26032D   26074.08067063  .00107438  00000+0  71238-3 0  9999
2 67800  97.2837 260.8605 0002329  53.9043 306.2438 15.75180815  5637
STARLINK-36773          
1 67801U 26032E   26074.15196118  .00135037  00000+0  89183-3 0  9996
2 67801  97.2837 260.9150 0002054  85.2527 274.8973 15.75192896  5641
STARLINK-36739          
1 67802U 26032F   26074.26066866  .00311083  00000+0  20092-2 0  9995
2 67802  97.2842 261.0734 0001288  89.3639 270.7774 15.75216237  5667
STARLINK-36768          
1 67803U 26032G   26074.08243585  .00170910  00000+0  11235-2 0  9992
2 67803  97.2837 260.8554 0002526  47.1944 312.9534 15.75198014  5638
STARLINK-36792          
1 67804U 26032H   26074.14843104  .00110413  00000+0  73192-3 0  9996
2 67804  97.2836 260.9189 0001100  93.5359 266.6032 15.75179827  5645
STARLINK-36782          
1 67805U 26032J   26074.25079090  .00232270  00000+0  15164-2 0  9994
2 67805  97.2842 261.0859 0001607  74.6972 285.4471 15.75185171  5669
STARLINK-36389          
1 67806U 26032K   26074.26420279  .00175068  00000+0  11513-2 0  9990
2 67806  97.2838 261.0667 0002077  64.3590 295.7889 15.75176782  5661
STARLINK-36382          
1 67807U 26032L   26074.26208440  .00300381  00000+0  19401-2 0  9997
2 67807  97.2834 261.0688 0001892  64.1729 295.9731 15.75244897  5668
STARLINK-36811          
1 67808U 26032M   26074.25220474  .00246046  00000+0  16020-2 0  9999
2 67808  97.2840 261.0835 0002167  79.2141 280.9368 15.75209650  5669
STARLINK-36795          
1 67809U 26032N   26074.26914455  .00313857  00000+0  20300-2 0  9991
2 67809  97.2835 261.0593 0001796  84.8391 275.3079 15.75175475  5665
STARLINK-36807          
1 67810U 26032P   26074.25326277  .00255647  00000+0  16630-2 0  9994
2 67810  97.2844 261.0809 0001518  79.1533 280.9903 15.75203880  5664
STARLINK-36733          
1 67811U 26032Q   26074.24373531  .00356862  00000+0  22977-2 0  9991
2 67811  97.2835 261.0931 0001852  78.5471 281.6002 15.75161602  5669
